*******************************************************************************
Ephemeris / WWW_USER Mon Mar 10 07:01:42 2025 Pasadena, USA      / Horizons    
*******************************************************************************
Target body name: (2019 AU)                       {source: JPL#11}
Center body name: Earth (399)                     {source: DE441}
Center-site name: Mauna Kea
*******************************************************************************
Start time      : A.D. 2018-Sep-25 04:25:00.0000 UT      
Stop  time      : A.D. 2018-Sep-25 16:02:00.0000 UT      
Step-size       : 1 minutes
*******************************************************************************
Target pole/equ : undefined
Target radii    : undefined                                                    
Center geodetic : 204.5278, 19.8260847, 4.21024   {E-lon(deg),Lat(deg),Alt(km)}
Center cylindric: 204.5278, 6006.35451, 2151.0229 {E-lon(deg),Dxy(km),Dz(km)}
Center pole/equ : ITRF93                          {East-longitude positive}
Center radii    : 6378.137, 6378.137, 6356.752 km {Equator_a, b, pole_c}       
Target primary  : Sun
Vis. interferer : MOON (R_eq= 1737.400) km        {source: DE441}
Rel. light bend : Sun                             {source: DE441}
Rel. lght bnd GM: 1.3271E+11 km^3/s^2                                          
Small-body perts: Yes                             {source: SB441-N16}
Atmos refraction: NO (AIRLESS)
RA format       : HMS
Time format     : CAL 
Calendar mode   : Mixed Julian/Gregorian
RTS-only print  : NO       
EOP file        : eop.250307.p250603                                           
EOP coverage    : DATA-BASED 1962-JAN-20 TO 2025-MAR-07. PREDICTS-> 2025-JUN-02
Units conversion: 1 au= 149597870.700 km, c= 299792.458 km/s, 1 day= 86400.0 s 
Table cut-offs 1: Elevation (-90.0deg=NO ),Airmass (>38.000=NO), Daylight (YES)
Table cut-offs 2: Solar elongation (  0.0,180.0=NO ),Local Hour Angle( 0.0=NO )
Table cut-offs 3: RA/DEC angular rate (     0.0=NO )                           
*******************************************************************************
Initial IAU76/J2000 heliocentric ecliptic osculating elements (au, days, deg.):
  EPOCH=  2458490.5 ! 2019-Jan-07.00 (TDB)         Residual RMS= .17143        
   EC= .1028488096127525   QR= .9927870416208908   TP= 2458466.0562707144      
   OM= 109.6543146265929   W=  330.7265060973358   IN= 5.020660041219873       
  Equivalent ICRF heliocentric cartesian coordinates (au, au/d):
   X=-2.730606646751524E-01  Y= 8.866895536052930E-01  Z= 3.780071563225811E-01
  VX=-1.742089442644723E-02 VY=-4.449382429672076E-03 VZ=-2.237797348809624E-04
Asteroid physical parameters (km, seconds, rotational period in hours):        
   GM= n.a.                RAD= n.a.               ROTPER= n.a.                
   H= 26.7                 G= .150                 B-V= n.a.                   
                           ALBEDO= n.a.            STYP= n.a.                  
*******************************************************************************
 Date__(UT)__HR:MN     R.A._________(ICRF)_________DEC
******************************************************
$$SOE
 2018-Sep-25 08:31  m  01 49 38.041662 -48 25 13.33328
 2018-Sep-25 08:32  m  01 49 38.074125 -48 25 15.16829
 2018-Sep-25 08:33  m  01 49 38.106473 -48 25 17.00259
 2018-Sep-25 08:34  m  01 49 38.138705 -48 25 18.83619
 2018-Sep-25 08:35  m  01 49 38.170824 -48 25 20.66908
 2018-Sep-25 08:36  m  01 49 38.202828 -48 25 22.50125
 2018-Sep-25 08:37  m  01 49 38.234718 -48 25 24.33270
 2018-Sep-25 08:38  m  01 49 38.266495 -48 25 26.16342
 2018-Sep-25 08:39  m  01 49 38.298159 -48 25 27.99342
 2018-Sep-25 08:40  m  01 49 38.329710 -48 25 29.82269
 2018-Sep-25 08:41  m  01 49 38.361149 -48 25 31.65122
 2018-Sep-25 08:42  m  01 49 38.392477 -48 25 33.47902
 2018-Sep-25 08:43  m  01 49 38.423693 -48 25 35.30608
 2018-Sep-25 08:44  m  01 49 38.454799 -48 25 37.13239
 2018-Sep-25 08:45  m  01 49 38.485793 -48 25 38.95795
 2018-Sep-25 08:46  m  01 49 38.516678 -48 25 40.78276
 2018-Sep-25 08:47  m  01 49 38.547454 -48 25 42.60681
 2018-Sep-25 08:48  m  01 49 38.578120 -48 25 44.43010
 2018-Sep-25 08:49  m  01 49 38.608677 -48 25 46.25263
 2018-Sep-25 08:50  m  01 49 38.639126 -48 25 48.07440
 2018-Sep-25 08:51  m  01 49 38.669468 -48 25 49.89539
 2018-Sep-25 08:52  m  01 49 38.699702 -48 25 51.71561
 2018-Sep-25 08:53  m  01 49 38.729829 -48 25 53.53505
 2018-Sep-25 08:54  m  01 49 38.759849 -48 25 55.35372
 2018-Sep-25 08:55  m  01 49 38.789763 -48 25 57.17160
 2018-Sep-25 08:56  m  01 49 38.819572 -48 25 58.98869
 2018-Sep-25 08:57  m  01 49 38.849275 -48 26 00.80499
 2018-Sep-25 08:58  m  01 49 38.878874 -48 26 02.62050
 2018-Sep-25 08:59  m  01 49 38.908368 -48 26 04.43521
 2018-Sep-25 09:00  m  01 49 38.937759 -48 26 06.24912
 2018-Sep-25 09:01  m  01 49 38.967046 -48 26 08.06222
 2018-Sep-25 09:02  m  01 49 38.996231 -48 26 09.87452
 2018-Sep-25 09:03  m  01 49 39.025312 -48 26 11.68601
 2018-Sep-25 09:04  m  01 49 39.054292 -48 26 13.49668
 2018-Sep-25 09:05  m  01 49 39.083171 -48 26 15.30653
 2018-Sep-25 09:06  m  01 49 39.111948 -48 26 17.11557
 2018-Sep-25 09:07  m  01 49 39.140625 -48 26 18.92378
 2018-Sep-25 09:08  m  01 49 39.169201 -48 26 20.73116
 2018-Sep-25 09:09  m  01 49 39.197678 -48 26 22.53771
 2018-Sep-25 09:10  m  01 49 39.226056 -48 26 24.34343
 2018-Sep-25 09:11  m  01 49 39.254335 -48 26 26.14832
 2018-Sep-25 09:12  m  01 49 39.282516 -48 26 27.95236
 2018-Sep-25 09:13  m  01 49 39.310599 -48 26 29.75556
 2018-Sep-25 09:14  m  01 49 39.338585 -48 26 31.55791
 2018-Sep-25 09:15  m  01 49 39.366474 -48 26 33.35941
 2018-Sep-25 09:16  m  01 49 39.394266 -48 26 35.16006
 2018-Sep-25 09:17  m  01 49 39.421963 -48 26 36.95985
 2018-Sep-25 09:18  m  01 49 39.449565 -48 26 38.75879
 2018-Sep-25 09:19  m  01 49 39.477072 -48 26 40.55686
 2018-Sep-25 09:20  m  01 49 39.504484 -48 26 42.35407
 2018-Sep-25 09:21  m  01 49 39.531803 -48 26 44.15041
 2018-Sep-25 09:22  m  01 49 39.559028 -48 26 45.94588
 2018-Sep-25 09:23  m  01 49 39.586161 -48 26 47.74047
 2018-Sep-25 09:24  m  01 49 39.613201 -48 26 49.53419
 2018-Sep-25 09:25  m  01 49 39.640150 -48 26 51.32703
 2018-Sep-25 09:26  m  01 49 39.667007 -48 26 53.11898
 2018-Sep-25 09:27  m  01 49 39.693773 -48 26 54.91005
 2018-Sep-25 09:28  m  01 49 39.720449 -48 26 56.70023
 2018-Sep-25 09:29  m  01 49 39.747035 -48 26 58.48952
 2018-Sep-25 09:30  m  01 49 39.773532 -48 27 00.27791
 2018-Sep-25 09:31  m  01 49 39.799940 -48 27 02.06540
 2018-Sep-25 09:32  m  01 49 39.826259 -48 27 03.85200
 2018-Sep-25 09:33  m  01 49 39.852491 -48 27 05.63769
 2018-Sep-25 09:34  m  01 49 39.878636 -48 27 07.42247
 2018-Sep-25 09:35  m  01 49 39.904694 -48 27 09.20635
 2018-Sep-25 09:36  m  01 49 39.930666 -48 27 10.98931
 2018-Sep-25 09:37  m  01 49 39.956552 -48 27 12.77136
 2018-Sep-25 09:38  m  01 49 39.982353 -48 27 14.55249
 2018-Sep-25 09:39  m  01 49 40.008070 -48 27 16.33270
 2018-Sep-25 09:40  m  01 49 40.033702 -48 27 18.11199
 2018-Sep-25 09:41  m  01 49 40.059251 -48 27 19.89035
 2018-Sep-25 09:42  m  01 49 40.084717 -48 27 21.66779
 2018-Sep-25 09:43  m  01 49 40.110100 -48 27 23.44429
 2018-Sep-25 09:44  m  01 49 40.135401 -48 27 25.21986
 2018-Sep-25 09:45  m  01 49 40.160621 -48 27 26.99449
 2018-Sep-25 09:46  m  01 49 40.185760 -48 27 28.76819
 2018-Sep-25 09:47  m  01 49 40.210819 -48 27 30.54094
 2018-Sep-25 09:48  m  01 49 40.235798 -48 27 32.31275
 2018-Sep-25 09:49  m  01 49 40.260697 -48 27 34.08361
 2018-Sep-25 09:50  m  01 49 40.285518 -48 27 35.85353
 2018-Sep-25 09:51  m  01 49 40.310260 -48 27 37.62249
 2018-Sep-25 09:52  m  01 49 40.334925 -48 27 39.39049
 2018-Sep-25 09:53  m  01 49 40.359513 -48 27 41.15754
 2018-Sep-25 09:54  m  01 49 40.384025 -48 27 42.92364
 2018-Sep-25 09:55  m  01 49 40.408460 -48 27 44.68876
 2018-Sep-25 09:56  m  01 49 40.432820 -48 27 46.45293
 2018-Sep-25 09:57  m  01 49 40.457105 -48 27 48.21613
 2018-Sep-25 09:58  m  01 49 40.481316 -48 27 49.97836
 2018-Sep-25 09:59  m  01 49 40.505453 -48 27 51.73961
 2018-Sep-25 10:00  m  01 49 40.529516 -48 27 53.49990
 2018-Sep-25 10:01  m  01 49 40.553507 -48 27 55.25920
 2018-Sep-25 10:02  m  01 49 40.577426 -48 27 57.01753
 2018-Sep-25 10:03  m  01 49 40.601274 -48 27 58.77488
 2018-Sep-25 10:04  m  01 49 40.625050 -48 28 00.53125
 2018-Sep-25 10:05  m  01 49 40.648756 -48 28 02.28663
 2018-Sep-25 10:06  m  01 49 40.672393 -48 28 04.04102
 2018-Sep-25 10:07  m  01 49 40.695960 -48 28 05.79442
 2018-Sep-25 10:08  m  01 49 40.719458 -48 28 07.54683
 2018-Sep-25 10:09  m  01 49 40.742888 -48 28 09.29824
 2018-Sep-25 10:10  m  01 49 40.766251 -48 28 11.04866
 2018-Sep-25 10:11  m  01 49 40.789546 -48 28 12.79808
 2018-Sep-25 10:12  m  01 49 40.812775 -48 28 14.54650
 2018-Sep-25 10:13  m  01 49 40.835939 -48 28 16.29391
 2018-Sep-25 10:14  m  01 49 40.859037 -48 28 18.04032
 2018-Sep-25 10:15  m  01 49 40.882070 -48 28 19.78573
 2018-Sep-25 10:16  m  01 49 40.905039 -48 28 21.53012
 2018-Sep-25 10:17  m  01 49 40.927945 -48 28 23.27350
 2018-Sep-25 10:18  m  01 49 40.950788 -48 28 25.01587
 2018-Sep-25 10:19  m  01 49 40.973568 -48 28 26.75722
 2018-Sep-25 10:20  m  01 49 40.996287 -48 28 28.49756
 2018-Sep-25 10:21  m  01 49 41.018945 -48 28 30.23687
 2018-Sep-25 10:22  m  01 49 41.041542 -48 28 31.97517
 2018-Sep-25 10:23  m  01 49 41.064078 -48 28 33.71244
 2018-Sep-25 10:24  m  01 49 41.086556 -48 28 35.44868
 2018-Sep-25 10:25  m  01 49 41.108975 -48 28 37.18390
 2018-Sep-25 10:26  m  01 49 41.131335 -48 28 38.91809
 2018-Sep-25 10:27  m  01 49 41.153638 -48 28 40.65125
 2018-Sep-25 10:28  m  01 49 41.175883 -48 28 42.38337
 2018-Sep-25 10:29  m  01 49 41.198072 -48 28 44.11446
 2018-Sep-25 10:30  m  01 49 41.220206 -48 28 45.84452
 2018-Sep-25 10:31  m  01 49 41.242284 -48 28 47.57353
 2018-Sep-25 10:32  m  01 49 41.264307 -48 28 49.30151
 2018-Sep-25 10:33  m  01 49 41.286277 -48 28 51.02844
